[{"OBJECT_NAME":"FLOCK 4G-25","OBJECT_ID":"2025-009AP","EPOCH":"2026-03-09T17:53:50.680608","MEAN_MOTION":15.27424196,"ECCENTRICITY":8.276e-5,"INCLINATION":97.4049,"RA_OF_ASC_NODE":151.4141,"ARG_OF_PERICENTER":316.3151,"MEAN_ANOMALY":43.8023,"EPHEMERIS_TYPE":0,"CLASSIFICATION_TYPE":"U","NORAD_CAT_ID":62646,"ELEMENT_SET_NO":999,"REV_AT_EPOCH":6373,"BSTAR":0.00038902475,"MEAN_MOTION_DOT":0.00010373,"MEAN_MOTION_DDOT":0},{"OBJECT_NAME":"TEVEL2-7","OBJECT_ID":"2025-052AE","EPOCH":"2026-03-09T15:52:01.887744","MEAN_MOTION":15.28414096,"ECCENTRICITY":0.00081048,"INCLINATION":97.4054,"RA_OF_ASC_NODE":324.3041,"ARG_OF_PERICENTER":124.683,"MEAN_ANOMALY":235.5175,"EPHEMERIS_TYPE":0,"CLASSIFICATION_TYPE":"U","NORAD_CAT_ID":63238,"ELEMENT_SET_NO":999,"REV_AT_EPOCH":5480,"BSTAR":0.00069668191,"MEAN_MOTION_DOT":0.00019244,"MEAN_MOTION_DDOT":0}]
